[{"OBJECT_NAME":"NUSAT-35 (WILLIAMINA)","OBJECT_ID":"2023-001AR","EPOCH":"2026-03-09T22:28:40.425600","MEAN_MOTION":15.3245616,"ECCENTRICITY":0.00136635,"INCLINATION":97.1993,"RA_OF_ASC_NODE":124.278,"ARG_OF_PERICENTER":97.0313,"MEAN_ANOMALY":263.2484,"EPHEMERIS_TYPE":0,"CLASSIFICATION_TYPE":"U","NORAD_CAT_ID":55048,"ELEMENT_SET_NO":999,"REV_AT_EPOCH":17719,"BSTAR":0.00053479647,"MEAN_MOTION_DOT":0.0001675,"MEAN_MOTION_DDOT":0},{"OBJECT_NAME":"STARLINK-32660","OBJECT_ID":"2024-229P","EPOCH":"2026-03-09T19:27:55.803456","MEAN_MOTION":15.27574209,"ECCENTRICITY":0.00016941,"INCLINATION":42.998,"RA_OF_ASC_NODE":255.8344,"ARG_OF_PERICENTER":268.9624,"MEAN_ANOMALY":91.1033,"EPHEMERIS_TYPE":0,"CLASSIFICATION_TYPE":"U","NORAD_CAT_ID":62205,"ELEMENT_SET_NO":999,"REV_AT_EPOCH":7074,"BSTAR":0.00077437549,"MEAN_MOTION_DOT":0.00021105,"MEAN_MOTION_DDOT":0}]
